[ {"OBJECT_NAME": "SOYUZ-MS 28", "OBJECT_ID": "2025-275A", "EPOCH": "2026-04-06T00:07:10.853472", "MEAN_MOTION": 15.48794122, "ECCENTRICITY": 0.00063498, "INCLINATION": 51.6327, "RA_OF_ASC_NODE": 297.3095, "ARG_OF_PERICENTER": 277.1679, "MEAN_ANOMALY": 82.8588, "EPHEMERIS_TYPE": 0, "CLASSIFICATION_TYPE": "U", "NORAD_CAT_ID": 66664, "ELEMENT_SET_NO": 999, "REV_AT_EPOCH": 56050, "BSTAR": 0.00015106948, "MEAN_MOTION_DOT": 7.825e-05, "MEAN_MOTION_DDOT": 0}, {"OBJECT_NAME": "DUPLEX", "OBJECT_ID": "1998-067XS", "EPOCH": "2026-04-05T20:41:24.162144", "MEAN_MOTION": 15.58090473, "ECCENTRICITY": 0.00034071, "INCLINATION": 51.6286, "RA_OF_ASC_NODE": 293.3557, "ARG_OF_PERICENTER": 242.5355, "MEAN_ANOMALY": 117.5291, "EPHEMERIS_TYPE": 0, "CLASSIFICATION_TYPE": "U", "NORAD_CAT_ID": 66906, "ELEMENT_SET_NO": 999, "REV_AT_EPOCH": 1936, "BSTAR": 0.00040797926, "MEAN_MOTION_DOT": 0.000309, "MEAN_MOTION_DDOT": 0}, {"OBJECT_NAME": "ISS OBJECT XT", "OBJECT_ID": "1998-067XT", "EPOCH": "2026-04-05T19:32:05.160768", "MEAN_MOTION": 15.81038991, "ECCENTRICITY": 0.00076267, "INCLINATION": 51.6217, "RA_OF_ASC_NODE": 286.2314, "ARG_OF_PERICENTER": 257.9679, "MEAN_ANOMALY": 102.0469, "EPHEMERIS_TYPE": 0, "CLASSIFICATION_TYPE": "U", "NORAD_CAT_ID": 66907, "ELEMENT_SET_NO": 999, "REV_AT_EPOCH": 1945, "BSTAR": 0.0015655189, "MEAN_MOTION_DOT": 0.00323618, "MEAN_MOTION_DDOT": 0}, {"OBJECT_NAME": "ISS OBJECT XU", "OBJECT_ID": "1998-067XU", "EPOCH": "2026-04-05T19:24:22.597632", "MEAN_MOTION": 15.81429806, "ECCENTRICITY": 0.00078041, "INCLINATION": 51.6224, "RA_OF_ASC_NODE": 286.1921, "ARG_OF_PERICENTER": 256.8765, "MEAN_ANOMALY": 103.1367, "EPHEMERIS_TYPE": 0, "CLASSIFICATION_TYPE": "U", "NORAD_CAT_ID": 66908, "ELEMENT_SET_NO": 999, "REV_AT_EPOCH": 1945, "BSTAR": 0.001509068, "MEAN_MOTION_DOT": 0.00317413, "MEAN_MOTION_DDOT": 0}, {"OBJECT_NAME": "SILVERSAT", "OBJECT_ID": "1998-067XV", "EPOCH": "2026-04-05T17:32:03.770016", "MEAN_MOTION": 15.89127269, "ECCENTRICITY": 0.00094404, "INCLINATION": 51.618, "RA_OF_ASC_NODE": 284.8979, "ARG_OF_PERICENTER": 264.4078, "MEAN_ANOMALY": 95.5851, "EPHEMERIS_TYPE": 0, "CLASSIFICATION_TYPE": "U", "NORAD_CAT_ID": 66909, "ELEMENT_SET_NO": 999, "REV_AT_EPOCH": 1946, "BSTAR": 0.0017461776, "MEAN_MOTION_DOT": 0.00511697, "MEAN_MOTION_DDOT": 0.00010942221}, {"OBJECT_NAME": "ISS OBJECT XW", "OBJECT_ID": "1998-067XW", "EPOCH": "2026-04-05T18:24:10.108224", "MEAN_MOTION": 15.78843649, "ECCENTRICITY": 0.0007677, "INCLINATION": 51.6196, "RA_OF_ASC_NODE": 286.6599, "ARG_OF_PERICENTER": 253.02, "MEAN_ANOMALY": 106.9959, "EPHEMERIS_TYPE": 0, "CLASSIFICATION_TYPE": "U", "NORAD_CAT_ID": 66910, "ELEMENT_SET_NO": 999, "REV_AT_EPOCH": 1944, "BSTAR": 0.0014295084, "MEAN_MOTION_DOT": 0.0026546, "MEAN_MOTION_DDOT": 0}, {"OBJECT_NAME": "ISS OBJECT XX", "OBJECT_ID": "1998-067XX", "EPOCH": "2026-04-05T18:05:22.153632", "MEAN_MOTION": 16.01632842, "ECCENTRICITY": 0.00120608, "INCLINATION": 51.6135, "RA_OF_ASC_NODE": 282.7499, "ARG_OF_PERICENTER": 272.1994, "MEAN_ANOMALY": 87.7635, "EPHEMERIS_TYPE": 0, "CLASSIFICATION_TYPE": "U", "NORAD_CAT_ID": 66911, "ELEMENT_SET_NO": 999, "REV_AT_EPOCH": 1948, "BSTAR": 0.0021130794, "MEAN_MOTION_DOT": 0.01217551, "MEAN_MOTION_DDOT": 0.00079991624}, {"OBJECT_NAME": "ISS OBJECT XY", "OBJECT_ID": "1998-067XY", "EPOCH": "2026-04-05T19:43:11.966592", "MEAN_MOTION": 15.69823635, "ECCENTRICITY": 0.000529, "INCLINATION": 51.6244, "RA_OF_ASC_NODE": 289.3172, "ARG_OF_PERICENTER": 250.7234, "MEAN_ANOMALY": 109.3192, "EPHEMERIS_TYPE": 0, "CLASSIFICATION_TYPE": "U", "NORAD_CAT_ID": 66912, "ELEMENT_SET_NO": 999, "REV_AT_EPOCH": 1940, "BSTAR": 0.0011567595, "MEAN_MOTION_DOT": 0.0014297, "MEAN_MOTION_DDOT": 0}, {"OBJECT_NAME": "KNACKSAT-2", "OBJECT_ID": "1998-067XZ", "EPOCH": "2026-04-06T06:27:21.980160", "MEAN_MOTION": 15.54283119, "ECCENTRICITY": 0.00107214, "INCLINATION": 51.6311, "RA_OF_ASC_NODE": 294.5754, "ARG_OF_PERICENTER": 288.3615, "MEAN_ANOMALY": 71.6209, "EPHEMERIS_TYPE": 0, "CLASSIFICATION_TYPE": "U", "NORAD_CAT_ID": 67683, "ELEMENT_SET_NO": 999, "REV_AT_EPOCH": 907, "BSTAR": 0.00069148825, "MEAN_MOTION_DOT": 0.00045921, "MEAN_MOTION_DDOT": 0}, {"OBJECT_NAME": "CORAL", "OBJECT_ID": "1998-067YA", "EPOCH": "2026-04-05T17:27:30.822048", "MEAN_MOTION": 15.59362518, "ECCENTRICITY": 0.00137279, "INCLINATION": 51.6287, "RA_OF_ASC_NODE": 296.2079, "ARG_OF_PERICENTER": 276.4839, "MEAN_ANOMALY": 83.4591, "EPHEMERIS_TYPE": 0, "CLASSIFICATION_TYPE": "U", "NORAD_CAT_ID": 67684, "ELEMENT_SET_NO": 999, "REV_AT_EPOCH": 900, "BSTAR": 0.0012984401, "MEAN_MOTION_DOT": 0.00105757, "MEAN_MOTION_DDOT": 0}, {"OBJECT_NAME": "GXIBA-1", "OBJECT_ID": "1998-067YB", "EPOCH": "2026-04-05T22:25:34.925664", "MEAN_MOTION": 15.54903077, "ECCENTRICITY": 0.00125884, "INCLINATION": 51.6301, "RA_OF_ASC_NODE": 296.0905, "ARG_OF_PERICENTER": 283.5726, "MEAN_ANOMALY": 76.3862, "EPHEMERIS_TYPE": 0, "CLASSIFICATION_TYPE": "U", "NORAD_CAT_ID": 67685, "ELEMENT_SET_NO": 999, "REV_AT_EPOCH": 902, "BSTAR": 0.00072086847, "MEAN_MOTION_DOT": 0.00049066, "MEAN_MOTION_DDOT": 0}, {"OBJECT_NAME": "UITMSAT-2", "OBJECT_ID": "1998-067YC", "EPOCH": "2026-04-05T21:56:35.360160", "MEAN_MOTION": 15.56078993, "ECCENTRICITY": 0.00096858, "INCLINATION": 51.6302, "RA_OF_ASC_NODE": 295.9586, "ARG_OF_PERICENTER": 258.189, "MEAN_ANOMALY": 101.8015, "EPHEMERIS_TYPE": 0, "CLASSIFICATION_TYPE": "U", "NORAD_CAT_ID": 67686, "ELEMENT_SET_NO": 999, "REV_AT_EPOCH": 902, "BSTAR": 0.00088987206, "MEAN_MOTION_DOT": 0.00063417, "MEAN_MOTION_DDOT": 0}, {"OBJECT_NAME": "HMU-SAT2", "OBJECT_ID": "1998-067YD", "EPOCH": "2026-04-06T06:17:29.397120", "MEAN_MOTION": 15.54650173, "ECCENTRICITY": 0.00091748, "INCLINATION": 51.631, "RA_OF_ASC_NODE": 294.5327, "ARG_OF_PERICENTER": 262.6054, "MEAN_ANOMALY": 97.3894, "EPHEMERIS_TYPE": 0, "CLASSIFICATION_TYPE": "U", "NORAD_CAT_ID": 67687, "ELEMENT_SET_NO": 999, "REV_AT_EPOCH": 899, "BSTAR": 0.00074597877, "MEAN_MOTION_DOT": 0.00050248, "MEAN_MOTION_DDOT": 0}, {"OBJECT_NAME": "LEOPARD", "OBJECT_ID": "1998-067YE", "EPOCH": "2026-04-05T20:37:17.819328", "MEAN_MOTION": 15.55534164, "ECCENTRICITY": 0.00093344, "INCLINATION": 51.6303, "RA_OF_ASC_NODE": 296.3413, "ARG_OF_PERICENTER": 258.5898, "MEAN_ANOMALY": 101.4045, "EPHEMERIS_TYPE": 0, "CLASSIFICATION_TYPE": "U", "NORAD_CAT_ID": 67688, "ELEMENT_SET_NO": 999, "REV_AT_EPOCH": 893, "BSTAR": 0.0007758062, "MEAN_MOTION_DOT": 0.00054045, "MEAN_MOTION_DDOT": 0}, {"OBJECT_NAME": "CREW DRAGON 12", "OBJECT_ID": "2026-031A", "EPOCH": "2026-04-06T00:07:10.853472", "MEAN_MOTION": 15.48794122, "ECCENTRICITY": 0.00063498, "INCLINATION": 51.6327, "RA_OF_ASC_NODE": 297.3095, "ARG_OF_PERICENTER": 277.1679, "MEAN_ANOMALY": 82.8588, "EPHEMERIS_TYPE": 0, "CLASSIFICATION_TYPE": "U", "NORAD_CAT_ID": 67796, "ELEMENT_SET_NO": 999, "REV_AT_EPOCH": 56055, "BSTAR": 0.00015106948, "MEAN_MOTION_DOT": 7.825e-05, "MEAN_MOTION_DDOT": 0}]